ADRAS-J                 
1 58992U 24034A   24293.41270746  .00016060  00000+0  14067-2 0  9999
2 58992  98.2268 272.3237 0042374   2.4827 357.6595 14.96077950 36422
